OBJECT_NAME,OBJECT_ID,EPOCH,MEAN_MOTION,ECCENTRICITY,INCLINATION,RA_OF_ASC_NODE,ARG_OF_PERICENTER,MEAN_ANOMALY,EPHEMERIS_TYPE,CLASSIFICATION_TYPE,NORAD_CAT_ID,ELEMENT_SET_NO,REV_AT_EPOCH,BSTAR,MEAN_MOTION_DOT,MEAN_MOTION_DDOT
EUTELSAT 53A,2014-064A,2026-06-04T03:32:49.449984,1.00271885,.00006904,0.0132,283.7907,237.4697,197.5441,0,U,40277,999,4143,0,.11E-5,0
GSAT-16,2014-078A,2026-06-04T03:33:26.889696,1.00271053,.00079413,0.0593,95.2110,348.4490,277.3778,0,U,40332,999,4197,0,.97E-6,0
DIRECTV 14,2014-078B,2026-06-03T23:24:02.551392,1.00271680,.00002405,0.0107,331.1802,175.9193,357.1086,0,U,40333,999,4191,0,-.113E-5,0
YAMAL 401,2014-082A,2026-06-04T04:27:21.708288,1.00272330,.00000245,0.0155,324.3022,128.6369,316.4880,0,U,40345,999,4178,0,0,0
ASTRA 2G,2014-089A,2026-06-04T03:25:42.632256,1.00269984,.00052729,0.0476,2.2911,56.0609,273.8804,0,U,40364,999,4183,0,.162E-5,0
FENGYUN 2G,2014-090A,2026-06-03T19:12:45.107712,1.00279146,.00034407,5.6052,72.9774,153.7233,53.2439,0,U,40367,999,4186,0,-.292E-5,0
MUOS-3,2015-002A,2026-06-04T01:30:44.795808,1.00272302,.00515312,4.4965,43.4682,178.7541,37.5385,0,U,40374,999,4145,0,-.118E-5,0
INMARSAT 5-F2,2015-005A,2026-06-03T20:11:20.921568,1.00272434,.00006553,0.0178,358.3891,188.3532,313.3768,0,U,40384,999,4086,0,-.273E-5,0
ABS-3A,2015-010A,2026-06-04T04:59:30.130368,1.00269958,.00016377,0.0123,117.8614,274.0855,292.5944,0,U,40424,999,4124,0,-.15E-6,0
EUTELSAT 115 WEST B,2015-010B,2026-06-04T01:02:15.946368,1.00273244,.00003568,0.0106,149.0780,132.9776,231.1045,0,U,40425,999,4126,0,-.13E-6,0
EXPRESS-AM7,2015-012A,2026-06-04T03:29:04.809120,1.00272126,.00033569,0.0161,5.3429,73.5350,265.9769,0,U,40505,999,4087,0,.163E-5,0
BEIDOU-3S IGSO-1S,2015-019A,2026-06-03T20:54:21.655872,1.00254002,.0038494,49.2213,295.6213,191.1761,171.6675,0,U,40549,999,4094,0,-.164E-5,0
THOR 7,2015-022A,2026-06-04T05:00:15.059232,1.00270781,.00028267,0.0089,324.9475,106.8515,255.2709,0,U,40613,999,4068,0,0,0
TURKMENALEM52E/MONACOSAT,2015-023A,2026-06-04T05:29:38.603328,1.00271891,.00031828,0.0403,77.6408,353.3341,316.1258,0,U,40617,999,4071,0,.116E-5,0
DIRECTV 15,2015-026A,2026-06-04T05:31:13.701216,1.00268514,.00001354,0.0179,3.0157,51.4831,178.0899,0,U,40663,999,4033,0,-.9E-6,0
SKY MEXICO-1,2015-026B,2026-06-04T04:14:38.556096,1.00271041,.00023778,0.0176,1.2091,90.3229,145.9521,0,U,40664,999,4032,0,-.222E-5,0
METEOSAT-11 (MSG-4),2015-034A,2026-06-04T03:20:20.647104,1.00276233,.00016317,3.1697,71.1815,3.3437,237.5044,0,U,40732,999,708,0,.74E-6,0
STAR ONE C4,2015-034B,2026-06-04T04:06:38.846016,1.00270965,.00026245,0.0212,343.8612,82.2126,178.2170,0,U,40733,999,3988,0,-.253E-5,0
WGS F7 (USA 263),2015-036A,2026-06-04T04:07:38.610624,1.00269428,.00002343,0.0030,356.3315,326.2170,166.9642,0,U,40746,999,3974,0,.29E-6,0
INTELSAT 34 (IS-34),2015-039A,2026-06-04T03:01:56.023968,1.00270050,.00003312,0.0086,339.4745,48.0566,215.0374,0,U,40874,999,3950,0,-.273E-5,0
EUTELSAT 8 WEST B,2015-039B,2026-06-04T04:58:07.761792,1.00272103,.00038472,0.0645,346.4874,83.5613,249.1479,0,U,40875,999,3952,0,-.53E-6,0
GSAT-6,2015-041A,2026-06-04T03:41:18.637152,1.00272115,.00033605,1.8867,82.7488,346.4121,321.2903,0,U,40880,999,3946,0,-.149E-5,0
INMARSAT 5-F3,2015-042A,2026-06-03T19:35:39.343776,1.00273199,.00005307,0.0167,344.9315,90.7082,290.1786,0,U,40882,999,3943,0,.63E-6,0
MUOS-4,2015-044A,2026-06-04T05:13:38.629344,1.00272578,.00597842,4.3054,42.1614,4.6010,359.3460,0,U,40887,999,3943,0,-.83E-6,0
TJS-1,2015-046A,2026-06-04T06:52:19.043328,1.00273450,.00059288,0.2898,85.0135,352.3885,73.4524,0,U,40892,999,3944,0,-.143E-5,0
EXPRESS-AM8,2015-048A,2026-06-04T03:13:43.780800,1.00271823,.0000225,0.0138,285.4569,145.1579,216.4022,0,U,40895,999,3921,0,-.99E-6,0
BEIDOU-3S IGSO-2S,2015-053A,2026-06-03T18:27:21.816000,1.00263058,.00649407,49.2433,258.9424,192.1078,173.8319,0,U,40938,999,3922,0,-.13E-5,0
SKY MUSTER 1 (NBN1A),2015-054A,2026-06-04T07:23:01.754880,1.00270268,.00019029,0.0233,338.1484,110.9778,54.6175,0,U,40940,999,3913,0,0,0
ARSAT 2,2015-054B,2026-06-04T02:54:39.887136,1.00271777,.00022785,0.0380,61.2687,1.5947,152.3901,0,U,40941,999,3917,0,-.213E-5,0
MORELOS 3,2015-056A,2026-06-04T05:41:38.729184,1.00270788,.00018041,3.1768,14.7367,349.4653,220.7886,0,U,40946,999,3915,0,-.32E-6,0
APSTAR-9,2015-059A,2026-06-04T07:23:31.707168,1.00272071,.00020629,0.0167,333.4935,203.9246,328.2419,0,U,40982,999,3899,0,-.253E-5,0
TURKSAT 4B,2015-060A,2026-06-04T03:31:57.033696,1.00275414,.00024616,0.0178,335.0569,97.3354,283.2088,0,U,40984,999,3896,0,.126E-5,0
